CS1                     
1 49261U 21088B   26068.75173904  .00015722  00000+0  51176-3 0  9998
2 49261  97.3882 132.1684 0014129  78.0335 282.2490 15.31848439245182
STARLINK-31401          
1 59417U 24064V   26068.28431770 -.00000960  00000+0 -25367-4 0  9999
2 59417  43.0046  51.5445 0001413 251.7508 108.3190 15.27579016108998
